{"fetched_at":"2026-07-06T18:35:54.350Z","source":"https://celestrak.org/NORAD/elements/gp.php?NAME=SPACEMOBILE&FORMAT=JSON","constellation":"ast-spacemobile","records":[{"OBJECT_NAME":"SPACEMOBILE-003","OBJECT_ID":"2024-163A","EPOCH":"2026-06-26T19:29:47.816736","CLASSIFICATION_TYPE":"U","MEAN_MOTION":15.20822722,"ECCENTRICITY":0.0005991,"INCLINATION":52.9744,"RA_OF_ASC_NODE":265.1828,"ARG_OF_PERICENTER":141.0621,"MEAN_ANOMALY":219.0806,"EPHEMERIS_TYPE":0,"NORAD_CAT_ID":61045,"ELEMENT_SET_NO":999,"REV_AT_EPOCH":9923,"BSTAR":0.000090246,"MEAN_MOTION_DOT":0.00001689,"MEAN_MOTION_DDOT":0},{"OBJECT_NAME":"SPACEMOBILE-005","OBJECT_ID":"2024-163B","EPOCH":"2026-07-06T03:03:30.963744","CLASSIFICATION_TYPE":"U","MEAN_MOTION":15.20814784,"ECCENTRICITY":0.00091339,"INCLINATION":52.9791,"RA_OF_ASC_NODE":222.2813,"ARG_OF_PERICENTER":166.4225,"MEAN_ANOMALY":193.7017,"EPHEMERIS_TYPE":0,"NORAD_CAT_ID":61046,"ELEMENT_SET_NO":999,"REV_AT_EPOCH":10064,"BSTAR":-0.00006514986,"MEAN_MOTION_DOT":-0.00001786,"MEAN_MOTION_DDOT":0},{"OBJECT_NAME":"SPACEMOBILE-001","OBJECT_ID":"2024-163C","EPOCH":"2026-07-05T19:08:18.733056","CLASSIFICATION_TYPE":"U","MEAN_MOTION":15.20827435,"ECCENTRICITY":0.00074001,"INCLINATION":52.9763,"RA_OF_ASC_NODE":223.5137,"ARG_OF_PERICENTER":162.9242,"MEAN_ANOMALY":197.2003,"EPHEMERIS_TYPE":0,"NORAD_CAT_ID":61047,"ELEMENT_SET_NO":999,"REV_AT_EPOCH":10059,"BSTAR":0.00012996754,"MEAN_MOTION_DOT":0.00002578,"MEAN_MOTION_DDOT":0},{"OBJECT_NAME":"SPACEMOBILE-002","OBJECT_ID":"2024-163D","EPOCH":"2026-07-05T14:01:29.313120","CLASSIFICATION_TYPE":"U","MEAN_MOTION":15.20873419,"ECCENTRICITY":0.0006239,"INCLINATION":52.9742,"RA_OF_ASC_NODE":224.5396,"ARG_OF_PERICENTER":164.5958,"MEAN_ANOMALY":195.5228,"EPHEMERIS_TYPE":0,"NORAD_CAT_ID":61048,"ELEMENT_SET_NO":999,"REV_AT_EPOCH":10056,"BSTAR":0.0004581115,"MEAN_MOTION_DOT":0.0000994,"MEAN_MOTION_DDOT":0},{"OBJECT_NAME":"SPACEMOBILE-004","OBJECT_ID":"2024-163E","EPOCH":"2026-07-05T21:29:19.575744","CLASSIFICATION_TYPE":"U","MEAN_MOTION":15.20802887,"ECCENTRICITY":0.00071224,"INCLINATION":52.9649,"RA_OF_ASC_NODE":222.8932,"ARG_OF_PERICENTER":193.0409,"MEAN_ANOMALY":167.0402,"EPHEMERIS_TYPE":0,"NORAD_CAT_ID":61049,"ELEMENT_SET_NO":999,"REV_AT_EPOCH":10061,"BSTAR":0.00071381053,"MEAN_MOTION_DOT":0.00015654,"MEAN_MOTION_DDOT":0},{"OBJECT_NAME":"SPACEMOBILE-006","OBJECT_ID":"2025-309A","EPOCH":"2026-07-06T03:05:42.058464","CLASSIFICATION_TYPE":"U","MEAN_MOTION":15.18641469,"ECCENTRICITY":0.00107027,"INCLINATION":52.9956,"RA_OF_ASC_NODE":244.8687,"ARG_OF_PERICENTER":185.6932,"MEAN_ANOMALY":174.3942,"EPHEMERIS_TYPE":0,"NORAD_CAT_ID":67232,"ELEMENT_SET_NO":999,"REV_AT_EPOCH":2947,"BSTAR":0.000092409227,"MEAN_MOTION_DOT":0.00001618,"MEAN_MOTION_DDOT":0},{"OBJECT_NAME":"SPACEMOBILE-008","OBJECT_ID":"2026-139A","EPOCH":"2026-07-06T04:01:47.053344","CLASSIFICATION_TYPE":"U","MEAN_MOTION":15.12792935,"ECCENTRICITY":0.00046043,"INCLINATION":52.9938,"RA_OF_ASC_NODE":176.3923,"ARG_OF_PERICENTER":34.4337,"MEAN_ANOMALY":325.6952,"EPHEMERIS_TYPE":0,"NORAD_CAT_ID":69589,"ELEMENT_SET_NO":999,"REV_AT_EPOCH":285,"BSTAR":0.000050838139,"MEAN_MOTION_DOT":0.00000602,"MEAN_MOTION_DDOT":0},{"OBJECT_NAME":"SPACEMOBILE-009","OBJECT_ID":"2026-139B","EPOCH":"2026-07-06T04:03:41.561856","CLASSIFICATION_TYPE":"U","MEAN_MOTION":15.12686326,"ECCENTRICITY":0.000482,"INCLINATION":52.9928,"RA_OF_ASC_NODE":176.3963,"ARG_OF_PERICENTER":29.5652,"MEAN_ANOMALY":330.5611,"EPHEMERIS_TYPE":0,"NORAD_CAT_ID":69590,"ELEMENT_SET_NO":999,"REV_AT_EPOCH":285,"BSTAR":0.00005185962,"MEAN_MOTION_DOT":0.00000617,"MEAN_MOTION_DDOT":0},{"OBJECT_NAME":"SPACEMOBILE-010","OBJECT_ID":"2026-139C","EPOCH":"2026-07-06T04:06:43.484832","CLASSIFICATION_TYPE":"U","MEAN_MOTION":15.12517431,"ECCENTRICITY":0.00047002,"INCLINATION":52.9932,"RA_OF_ASC_NODE":176.4117,"ARG_OF_PERICENTER":20.5529,"MEAN_ANOMALY":339.5651,"EPHEMERIS_TYPE":0,"NORAD_CAT_ID":69591,"ELEMENT_SET_NO":999,"REV_AT_EPOCH":286,"BSTAR":0.000052915518,"MEAN_MOTION_DOT":0.00000632,"MEAN_MOTION_DDOT":0}]}
